STARLINK-31942          
1 59899U 24100Q   26067.21830014 -.00000899  00000+0 -23153-4 0  9992
2 59899  42.9999 133.5544 0000992 280.9043  79.1696 15.27567948100929
TEVEL2-3                
1 63218U 25052J   26068.64540225  .00020365  00000+0  69446-3 0  9991
2 63218  97.3994 324.7775 0004761 105.7353 254.4413 15.30377031 54855
